COSMOS 2361 [-]         
1 25590U 98076A   22019.34550090  .00000051  00000+0  39180-4 0  9991
2 25590  82.9362 316.3702 0030162 262.9628 209.9008 13.73008554156075
COSMOS 2378 [-]         
1 26818U 01023A   22018.89375006  .00000032  00000+0  17964-4 0  9997
2 26818  82.9300 335.0211 0031981 209.3754 150.5610 13.73961878 33777
COSMOS 2389 [-]         
1 27436U 02026A   22019.19187760  .00000069  00000+0  55566-4 0  9990
2 27436  82.9510 280.4215 0047689  72.5621  35.8011 13.74964938985912
COSMOS 2398 [-]         
1 27818U 03023A   22018.86359819  .00000049  00000+0  36616-4 0  9994
2 27818  82.9478 241.7744 0032497 106.0161 254.4584 13.72200375932876
COSMOS 2407 [+]         
1 28380U 04028A   22019.45259072  .00000062  00000+0  47712-4 0  9995
2 28380  82.9593 186.7234 0040612  74.4377 286.1266 13.76102329878665
COSMOS 2414 [+]         
1 28521U 05002A   22019.42405505  .00000056  00000+0  34072-4 0  9994
2 28521  82.9489 180.8952 0039012 238.2105 121.5260 13.87644329860883
COSMOS 2429 [-]         
1 32052U 07038A   22019.33920740  .00000052  00000+0  37618-4 0  9997
2 32052  82.9825 312.1689 0039578  51.7126 308.7579 13.74950781720511
COSMOS 2454 [-]         
1 35635U 09039A   22019.47357921  .00000056  00000+0  33114-4 0  9991
2 35635  82.9561 167.4886 0018937 180.6418 179.4722 13.89673919634002
COSMOS 2463 [+]         
1 36519U 10017A   22019.02206203  .00000026  00000+0  12240-4 0  9992
2 36519  82.9618 352.5652 0034819 277.9301 146.1091 13.71465418587307
